GSAT0101 (GALILEO-PFM)  
1 37846U 11060A   26138.51921061 -.00000076  00000+0  00000+0 0  9993
2 37846  57.0042 342.5656 0003697  40.2031 319.8521  1.70475570 90615
GSAT0102 (GALILEO-FM2)  
1 37847U 11060B   26138.41053159 -.00000075  00000+0  00000+0 0  9996
2 37847  57.0077 342.5691 0004013  10.0435 328.9075  1.70475809 90619
GSAT0103 (GALILEO-FM3)  
1 38857U 12055A   26136.79987478  .00000030  00000+0  00000+0 0  9992
2 38857  55.7880 102.4060 0005645 299.2123  60.6822  1.70473321 84472
GSAT0201 (GALILEO 5)    
1 40128U 14050A   26134.99980419 -.00000050  00000+0  00000+0 0  9994
2 40128  48.9120 274.7959 1669526 178.0972 182.6426  1.85519851 77706
GSAT0202 (GALILEO 6)    
1 40129U 14050B   26139.02835990 -.00000043  00000+0  00000+0 0  9999
2 40129  48.9252 273.7160 1671271 178.9822 181.4323  1.85520448 79944
GSAT0203 (GALILEO 7)    
1 40544U 15017A   26138.88369739 -.00000078  00000+0  00000+0 0  9998
2 40544  56.7962 342.3942 0002471 296.5995  63.4010  1.70475883 68708
GSAT0204 (GALILEO 8)    
1 40545U 15017B   26137.96626125 -.00000074  00000+0  00000+0 0  9998
2 40545  56.8028 342.4377 0001854 272.9045  87.1039  1.70475429 31737
GSAT0205 (GALILEO 9)    
1 40889U 15045A   26115.63255192 -.00000038  00000+0  00000+0 0  9992
2 40889  54.9613 223.1764 0005159 266.9978  92.9342  1.67410754 66085
GSAT0206 (GALILEO 10)   
1 40890U 15045B   26138.54153424  .00000018  00000+0  00000+0 0  9991
2 40890  54.9534 222.4232 0001595  17.2702 342.8037  1.70473897 66532
GSAT0209 (GALILEO 12)   
1 41174U 15079A   26138.12284661  .00000022  00000+0  00000+0 0  9991
2 41174  55.8109 102.0857 0005628 333.9639  25.9552  1.70473844 64261
GSAT0208 (GALILEO 11)   
1 41175U 15079B   26138.34313006  .00000021  00000+0  00000+0 0  9991
2 41175  55.8088 102.0767 0005091 335.0314  24.8914  1.70473736 64681
GSAT0211 (GALILEO 14)   
1 41549U 16030A   26138.46726544  .00000019  00000+0  00000+0 0  9999
2 41549  55.1040 222.5126 0002472 334.1936  25.8623  1.70473951 62162
GSAT0210 (GALILEO 13)   
1 41550U 16030B   26136.37819808  .00000022  00000+0  00000+0 0  9999
2 41550  55.1026 222.5678 0003120 229.9283 130.1038  1.70474053 62127
GSAT0207 (GALILEO 15)   
1 41859U 16069A   26138.41609003  .00000020  00000+0  00000+0 0  9992
2 41859  55.4810 101.9093 0005770 322.4147  37.4924  1.70473734 58892
GSAT0212 (GALILEO 16)   
1 41860U 16069B   26134.16349088  .00000049  00000+0  00000+0 0  9997
2 41860  55.4761 102.0219 0004753 345.7526  14.2010  1.70473991 59075
GSAT0213 (GALILEO 17)   
1 41861U 16069C   26136.87710314  .00000028  00000+0  00000+0 0  9999
2 41861  55.4801 101.9549 0005646 306.4907  53.4077  1.70474360 58982
GSAT0214 (GALILEO 18)   
1 41862U 16069D   26137.60984293  .00000023  00000+0  00000+0 0  9996
2 41862  55.4792 101.9272 0004702 313.0617  46.8471  1.70473890 59127
GSAT0215 (GALILEO 19)   
1 43055U 17079A   26136.34019632  .00000022  00000+0  00000+0 0  9999
2 43055  55.0824 222.3832 0002493 261.6938  98.3376  1.70474546 52447
GSAT0216 (GALILEO 20)   
1 43056U 17079B   26136.04478434  .00000021  00000+0  00000+0 0  9995
2 43056  55.0833 222.3915 0002027 282.3954  77.6397  1.70474841 52453
GSAT0217 (GALILEO 21)   
1 43057U 17079C   26139.19848642  .00000014  00000+0  00000+0 0  9999
2 43057  55.0798 222.3024 0003757 286.9220  73.1057  1.70474628 52493
GSAT0218 (GALILEO 22)   
1 43058U 17079D   26135.31246427  .00000019  00000+0  00000+0 0  9998
2 43058  55.0810 222.4069 0005067 272.5633  87.4315  1.70474663 52454
GSAT0221 (GALILEO 25)   
1 43564U 18060A   26136.97606751 -.00000069  00000+0  00000+0 0  9990
2 43564  57.1788 342.6232 0003228 316.4225  43.5865  1.70475697 48638
GSAT0222 (GALILEO 26)   
1 43565U 18060B   26137.78225310 -.00000072  00000+0  00000+0 0  9993
2 43565  57.1823 342.6049 0001937 276.5659  83.4431  1.70475454 48696
GSAT0219 (GALILEO 23)   
1 43566U 18060C   26138.58976691 -.00000076  00000+0  00000+0 0  9992
2 43566  57.1813 342.5845 0002742 333.6211  26.3925  1.70475706 48686
GSAT0220 (GALILEO 24)   
1 43567U 18060D   26137.05099067 -.00000069  00000+0  00000+0 0  9999
2 43567  57.1815 342.6264 0002986 324.1445  35.8697  1.70475366 48648
GSAT0223 (GALILEO 27)   
1 49809U 21116A   26138.36294572 -.00000075  00000+0  00000+0 0  9990
2 49809  57.1678 342.4802 0000692 203.3273 332.6842  1.70475558 27678
GSAT0224 (GALILEO 28)   
1 49810U 21116B   26138.18232784 -.00000074  00000+0  00000+0 0  9998
2 49810  57.1724 342.4839 0000466 130.5290  47.2520  1.70475579 27698
GSAT0225 (GALILEO 29)   
1 59598U 24079A   26137.59860289  .00000023  00000+0  00000+0 0  9997
2 59598  55.1013 101.9339 0002302 286.2726 246.4703  1.70474017 12795
GSAT0227 (GALILEO 30)   
1 59600U 24079C   26139.26021830  .00000018  00000+0  00000+0 0  9992
2 59600  55.0977 101.8862 0001622  28.2313 331.7261  1.70474106 12872
GSAT0232 (GALILEO 32)   
1 61182U 24167A   26138.46706140  .00000019  00000+0  00000+0 0  9994
2 61182  55.1930 222.1291 0005551 220.0029 228.7103  1.70474286 10376
